{"type": "FeatureCollection", "features": [ {"type": "Feature", "properties": {"norad_id": 29999, "name": "FENGYUN 1C DEB", "group": "fengyun-1c-debris", "lat": 13.424508037676434, "lon": 154.88344248639308, "alt_km": 728.2903653822859, "timestamp": "2025-12-14T14:39:29.643532+00:00", "meta": {"OBJECT_NAME": "FENGYUN 1C DEB", "OBJECT_ID": "1999-025LZ", "EPOCH": "2025-12-13T22:57:19.043424", "MEAN_MOTION": 14.20136437, "ECCENTRICITY": 0.01895986, "INCLINATION": 98.5765, "RA_OF_ASC_NODE": 332.1845, "ARG_OF_PERICENTER": 123.0488, "MEAN_ANOMALY": 298.578, "EPHEMERIS_TYPE": 0, "CLASSIFICATION_TYPE": "U", "NORAD_CAT_ID": 29999, "ELEMENT_SET_NO": 999, "REV_AT_EPOCH": 97741, "BSTAR": 0.00036278897, "MEAN_MOTION_DOT": 8.84e-06, "MEAN_MOTION_DDOT": 0}, "tle": {"line1": "1 29999U 99025LZ  25347.95647041  .00000884  00000+0  36279-3 0  9999", "line2": "2 29999  98.5765 332.1845 0189598 123.0488 298.5780 14.20136437977410"}}, "geometry": {"type": "Point", "coordinates": [154.88344248639308, 13.424508037676434]}}, {"type": "Feature", "properties": {"norad_id": 30001, "name": "FENGYUN 1C DEB", "group": "fengyun-1c-debris", "lat": -55.94620999652816, "lon": -129.76043350028857, "alt_km": 791.7189542753558, "timestamp": "2025-12-14T14:39:29.643544+00:00", "meta": {"OBJECT_NAME": "FENGYUN 1C DEB", "OBJECT_ID": "1999-025MA", "EPOCH": "2025-12-13T23:22:13.501632", "MEAN_MOTION": 14.38612685, "ECCENTRICITY": 0.00376516, "INCLINATION": 98.96, "RA_OF_ASC_NODE": 63.0742, "ARG_OF_PERICENTER": 95.0591, "MEAN_ANOMALY": 84.5014, "EPHEMERIS_TYPE": 0, "CLASSIFICATION_TYPE": "U", "NORAD_CAT_ID": 30001, "ELEMENT_SET_NO": 999, "REV_AT_EPOCH": 97449, "BSTAR": 0.0029856726, "MEAN_MOTION_DOT": 9.183e-05, "MEAN_MOTION_DDOT": 0}, "tle": {"line1": "1 30001U 99025MA  25347.97376738  .00009183  00000+0  29857-2 0  9993", "line2": "2 30001  98.9600  63.0742 0037651  95.0591  84.5014 14.38612685974490"}}, "geometry": {"type": "Point", "coordinates": [-129.76043350028857, -55.94620999652816]}}, {"type": "Feature", "properties": {"norad_id": 30003, "name": "FENGYUN 1C DEB", "group": "fengyun-1c-debris", "lat": 45.61120293741873, "lon": -46.48003147653076, "alt_km": 899.9594711082809, "timestamp": "2025-12-14T14:39:29.643558+00:00", "meta": {"OBJECT_NAME": "FENGYUN 1C DEB", "OBJECT_ID": "1999-025MC", "EPOCH": "2025-12-13T21:21:52.581888", "MEAN_MOTION": 13.85625074, "ECCENTRICITY": 0.0143419, "INCLINATION": 99.5767, "RA_OF_ASC_NODE": 322.715, "ARG_OF_PERICENTER": 116.8036, "MEAN_ANOMALY": 298.7727, "EPHEMERIS_TYPE": 0, "CLASSIFICATION_TYPE": "U", "NORAD_CAT_ID": 30003, "ELEMENT_SET_NO": 999, "REV_AT_EPOCH": 95504, "BSTAR": 0.00040485373, "MEAN_MOTION_DOT": 4.56e-06, "MEAN_MOTION_DDOT": 0}, "tle": {"line1": "1 30003U 99025MC  25347.89019192  .00000456  00000+0  40485-3 0  9999", "line2": "2 30003  99.5767 322.7150 0143419 116.8036 298.7727 13.85625074955044"}}, "geometry": {"type": "Point", "coordinates": [-46.48003147653076, 45.61120293741873]}}, {"type": "Feature", "properties": {"norad_id": 30004, "name": "FENGYUN 1C DEB", "group": "fengyun-1c-debris", "lat": 78.98439235213637, "lon": 46.385535447563825, "alt_km": 841.0874140741334, "timestamp": "2025-12-14T14:39:29.643568+00:00", "meta": {"OBJECT_NAME": "FENGYUN 1C DEB", "OBJECT_ID": "1999-025MD", "EPOCH": "2025-12-13T23:40:27.816384", "MEAN_MOTION": 14.17064534, "ECCENTRICITY": 0.00385871, "INCLINATION": 99.2234, "RA_OF_ASC_NODE": 169.1528, "ARG_OF_PERICENTER": 339.328, "MEAN_ANOMALY": 173.1107, "EPHEMERIS_TYPE": 0, "CLASSIFICATION_TYPE": "U", "NORAD_CAT_ID": 30004, "ELEMENT_SET_NO": 999, "REV_AT_EPOCH": 97324, "BSTAR": 0.00090018272, "MEAN_MOTION_DOT": 1.777e-05, "MEAN_MOTION_DDOT": 0}, "tle": {"line1": "1 30004U 99025MD  25347.98643306  .00001777  00000+0  90018-3 0  9994", "line2": "2 30004  99.2234 169.1528 0038587 339.3280 173.1107 14.17064534973249"}}, "geometry": {"type": "Point", "coordinates": [46.385535447563825, 78.98439235213637]}}, {"type": "Feature", "properties": {"norad_id": 30005, "name": "FENGYUN 1C DEB", "group": "fengyun-1c-debris", "lat": -34.76985668097518, "lon": 123.9159644255635, "alt_km": 1218.0992096944792, "timestamp": "2025-12-14T14:39:29.643578+00:00", "meta": {"OBJECT_NAME": "FENGYUN 1C DEB", "OBJECT_ID": "1999-025ME", "EPOCH": "2025-12-13T09:13:13.266912", "MEAN_MOTION": 13.5221892, "ECCENTRICITY": 0.0346791, "INCLINATION": 99.3016, "RA_OF_ASC_NODE": 309.2966, "ARG_OF_PERICENTER": 91.7384, "MEAN_ANOMALY": 272.3499, "EPHEMERIS_TYPE": 0, "CLASSIFICATION_TYPE": "U", "NORAD_CAT_ID": 30005, "ELEMENT_SET_NO": 999, "REV_AT_EPOCH": 92955, "BSTAR": 0.0017015864, "MEAN_MOTION_DOT": 1.599e-05, "MEAN_MOTION_DDOT": 0}, "tle": {"line1": "1 30005U 99025ME  25347.38418133  .00001599  00000+0  17016-2 0  9995", "line2": "2 30005  99.3016 309.2966 0346791  91.7384 272.3499 13.52218920929554"}}, "geometry": {"type": "Point", "coordinates": [123.9159644255635, -34.76985668097518]}}, {"type": "Feature", "properties": {"norad_id": 30007, "name": "FENGYUN 1C DEB", "group": "fengyun-1c-debris", "lat": -28.250960201092585, "lon": 65.06103625730339, "alt_km": 857.3392428755278, "timestamp": "2025-12-14T14:39:29.643589+00:00", "meta": {"OBJECT_NAME": "FENGYUN 1C DEB", "OBJECT_ID": "1999-025MG", "EPOCH": "2025-12-14T00:16:26.154912", "MEAN_MOTION": 14.25431791, "ECCENTRICITY": 0.00656194, "INCLINATION": 99.1778, "RA_OF_ASC_NODE": 249.4179, "ARG_OF_PERICENTER": 11.2666, "MEAN_ANOMALY": 3.6573, "EPHEMERIS_TYPE": 0, "CLASSIFICATION_TYPE": "U", "NORAD_CAT_ID": 30007, "ELEMENT_SET_NO": 999, "REV_AT_EPOCH": 97374, "BSTAR": 0.0020769283, "MEAN_MOTION_DOT": 4.969e-05, "MEAN_MOTION_DDOT": 0}, "tle": {"line1": "1 30007U 99025MG  25348.01141383  .00004969  00000+0  20769-2 0  9991", "line2": "2 30007  99.1778 249.4179 0065619  11.2666   3.6573 14.25431791973749"}}, "geometry": {"type": "Point", "coordinates": [65.06103625730339, -28.250960201092585]}}, {"type": "Feature", "properties": {"norad_id": 30008, "name": "FENGYUN 1C DEB", "group": "fengyun-1c-debris", "lat": 19.691116582401726, "lon": -58.138573227991145, "alt_km": 699.4192335354028, "timestamp": "2025-12-14T14:39:29.643599+00:00", "meta": {"OBJECT_NAME": "FENGYUN 1C DEB", "OBJECT_ID": "1999-025MH", "EPOCH": "2025-12-13T20:50:20.141088", "MEAN_MOTION": 14.66345994, "ECCENTRICITY": 0.00389278, "INCLINATION": 99.3685, "RA_OF_ASC_NODE": 304.4021, "ARG_OF_PERICENTER": 188.5037, "MEAN_ANOMALY": 234.5223, "EPHEMERIS_TYPE": 0, "CLASSIFICATION_TYPE": "U", "NORAD_CAT_ID": 30008, "ELEMENT_SET_NO": 999, "REV_AT_EPOCH": 99076, "BSTAR": 0.0024283182, "MEAN_MOTION_DOT": 0.00013523, "MEAN_MOTION_DDOT": 0}, "tle": {"line1": "1 30008U 99025MH  25347.86828867  .00013523  00000+0  24283-2 0  9994", "line2": "2 30008  99.3685 304.4021 0038927 188.5037 234.5223 14.66345994990761"}}, "geometry": {"type": "Point", "coordinates": [-58.138573227991145, 19.691116582401726]}}, {"type": "Feature", "properties": {"norad_id": 30009, "name": "FENGYUN 1C DEB", "group": "fengyun-1c-debris", "lat": 26.5456327821557, "lon": 38.97223724436823, "alt_km": 850.4884328309126, "timestamp": "2025-12-14T14:39:29.643609+00:00", "meta": {"OBJECT_NAME": "FENGYUN 1C DEB", "OBJECT_ID": "1999-025MJ", "EPOCH": "2025-12-13T21:26:20.001984", "MEAN_MOTION": 14.0485906, "ECCENTRICITY": 0.00638122, "INCLINATION": 99.0148, "RA_OF_ASC_NODE": 42.8084, "ARG_OF_PERICENTER": 332.0458, "MEAN_ANOMALY": 27.7286, "EPHEMERIS_TYPE": 0, "CLASSIFICATION_TYPE": "U", "NORAD_CAT_ID": 30009, "ELEMENT_SET_NO": 999, "REV_AT_EPOCH": 96499, "BSTAR": 0.00096225332, "MEAN_MOTION_DOT": 1.529e-05, "MEAN_MOTION_DDOT": 0}, "tle": {"line1": "1 30009U 99025MJ  25347.89328706  .00001529  00000+0  96225-3 0  9994", "line2": "2 30009  99.0148  42.8084 0063812 332.0458  27.7286 14.04859060964992"}}, "geometry": {"type": "Point", "coordinates": [38.97223724436823, 26.5456327821557]}}, {"type": "Feature", "properties": {"norad_id": 30010, "name": "FENGYUN 1C DEB", "group": "fengyun-1c-debris", "lat": -6.411707641390772, "lon": -178.14122098289386, "alt_km": 857.2526909589787, "timestamp": "2025-12-14T14:39:29.643619+00:00", "meta": {"OBJECT_NAME": "FENGYUN 1C DEB", "OBJECT_ID": "1999-025MK", "EPOCH": "2025-12-14T00:14:37.793760", "MEAN_MOTION": 14.24988454, "ECCENTRICITY": 0.00727333, "INCLINATION": 99.0697, "RA_OF_ASC_NODE": 180.2099, "ARG_OF_PERICENTER": 205.7041, "MEAN_ANOMALY": 308.1687, "EPHEMERIS_TYPE": 0, "CLASSIFICATION_TYPE": "U", "NORAD_CAT_ID": 30010, "ELEMENT_SET_NO": 999, "REV_AT_EPOCH": 98278, "BSTAR": 0.0001840283, "MEAN_MOTION_DOT": 3.95e-06, "MEAN_MOTION_DDOT": 0}, "tle": {"line1": "1 30010U 99025MK  25348.01015965  .00000395  00000+0  18403-3 0  9993", "line2": "2 30010  99.0697 180.2099 0072733 205.7041 308.1687 14.24988454982782"}}, "geometry": {"type": "Point", "coordinates": [-178.14122098289386, -6.411707641390772]}}, {"type": "Feature", "properties": {"norad_id": 30012, "name": "FENGYUN 1C DEB", "group": "fengyun-1c-debris", "lat": 40.19276699981659, "lon": 33.75983398160978, "alt_km": 955.9664324258229, "timestamp": "2025-12-14T14:39:29.643629+00:00", "meta": {"OBJECT_NAME": "FENGYUN 1C DEB", "OBJECT_ID": "1999-025MM", "EPOCH": "2025-12-13T18:15:41.328864", "MEAN_MOTION": 13.85766201, "ECCENTRICITY": 0.01370846, "INCLINATION": 99.4642, "RA_OF_ASC_NODE": 41.0029, "ARG_OF_PERICENTER": 142.9769, "MEAN_ANOMALY": 342.009, "EPHEMERIS_TYPE": 0, "CLASSIFICATION_TYPE": "U", "NORAD_CAT_ID": 30012, "ELEMENT_SET_NO": 999, "REV_AT_EPOCH": 95562, "BSTAR": 0.00036869628, "MEAN_MOTION_DOT": 4.1e-06, "MEAN_MOTION_DDOT": 0}, "tle": {"line1": "1 30012U 99025MM  25347.76089501  .00000410  00000+0  36870-3 0  9999", "line2": "2 30012  99.4642  41.0029 0137084 142.9769 342.0090 13.85766201955623"}}, "geometry": {"type": "Point", "coordinates": [33.75983398160978, 40.19276699981659]}}]}